{
  "type": "FeatureCollection",
  "features": [
    {
      "type": "Feature",
      "properties": {
        "norad_id": 64751,
        "name": "PROGRESS-MS 31",
        "group": "stations",
        "lat": -45.79589677597954,
        "lon": 96.6361854106747,
        "alt_km": 421.56081977968097,
        "timestamp": "2025-12-10T23:33:11.640523+00:00",
        "meta_object_name": "PROGRESS-MS 31",
        "meta_object_id": "2025-146A",
        "meta_epoch": "2025-12-10T13:00:09.919872",
        "meta_mean_motion": 15.49478601,
        "meta_eccentricity": 0.00033601,
        "meta_inclination": 51.6308,
        "meta_ra_of_asc_node": 153.362,
        "meta_arg_of_pericenter": 230.7092,
        "meta_mean_anomaly": 129.3599,
        "meta_ephemeris_type": 0,
        "meta_classification_type": "U",
        "meta_norad_cat_id": 64751,
        "meta_element_set_no": 999,
        "meta_rev_at_epoch": 675,
        "meta_bstar": 0.0002844348,
        "meta_mean_motion_dot": 0.00015517,
        "meta_mean_motion_ddot": 0,
        "tle_line1": "1 64751U 25146A   25344.54178148  .00015517  00000+0  28443-3 0  9999",
        "tle_line2": "2 64751  51.6308 153.3620 0003360 230.7092 129.3599 15.49478601  6754"
      },
      "geometry": {
        "type": "Point",
        "coordinates": [
          96.6361854106747,
          -45.79589677597954
        ]
      }
    },
    {
      "type": "Feature",
      "properties": {
        "norad_id": 64786,
        "name": "TIANZHOU-9",
        "group": "stations",
        "lat": -13.934185255009986,
        "lon": 11.063995623098513,
        "alt_km": 386.8440236393708,
        "timestamp": "2025-12-10T23:33:11.640534+00:00",
        "meta_object_name": "TIANZHOU-9",
        "meta_object_id": "2025-149A",
        "meta_epoch": "2025-12-10T14:25:11.377632",
        "meta_mean_motion": 15.59037498,
        "meta_eccentricity": 0.00087682,
        "meta_inclination": 41.4683,
        "meta_ra_of_asc_node": 29.6917,
        "meta_arg_of_pericenter": 13.0632,
        "meta_mean_anomaly": 347.0432,
        "meta_ephemeris_type": 0,
        "meta_classification_type": "U",
        "meta_norad_cat_id": 64786,
        "meta_element_set_no": 999,
        "meta_rev_at_epoch": 25530,
        "meta_bstar": 0.00043760673,
        "meta_mean_motion_dot": 0.00034963,
        "meta_mean_motion_ddot": 0,
        "tle_line1": "1 64786U 25149A   25344.60082613  .00034963  00000+0  43761-3 0  9994",
        "tle_line2": "2 64786  41.4683  29.6917 0008768  13.0632 347.0432 15.59037498255306"
      },
      "geometry": {
        "type": "Point",
        "coordinates": [
          11.063995623098513,
          -13.934185255009986
        ]
      }
    },
    {
      "type": "Feature",
      "properties": {
        "norad_id": 65077,
        "name": "CREW DRAGON 11",
        "group": "stations",
        "lat": -45.7958961600255,
        "lon": 96.63618714029035,
        "alt_km": 421.5608198058335,
        "timestamp": "2025-12-10T23:33:11.640544+00:00",
        "meta_object_name": "CREW DRAGON 11",
        "meta_object_id": "2025-166A",
        "meta_epoch": "2025-12-10T13:00:09.919872",
        "meta_mean_motion": 15.49478601,
        "meta_eccentricity": 0.00033601,
        "meta_inclination": 51.6308,
        "meta_ra_of_asc_node": 153.362,
        "meta_arg_of_pericenter": 230.7092,
        "meta_mean_anomaly": 129.3599,
        "meta_ephemeris_type": 0,
        "meta_classification_type": "U",
        "meta_norad_cat_id": 65077,
        "meta_element_set_no": 999,
        "meta_rev_at_epoch": 214,
        "meta_bstar": 0.0002844348,
        "meta_mean_motion_dot": 0.00015517,
        "meta_mean_motion_ddot": 0,
        "tle_line1": "1 65077U 25166A   25344.54178148  .00015517  00000+0  28443-3 0  9993",
        "tle_line2": "2 65077  51.6308 153.3620 0003360 230.7092 129.3599 15.49478601  2145"
      },
      "geometry": {
        "type": "Point",
        "coordinates": [
          96.63618714029035,
          -45.7958961600255
        ]
      }
    },
    {
      "type": "Feature",
      "properties": {
        "norad_id": 65304,
        "name": "DRAGON CRS-33",
        "group": "stations",
        "lat": -45.79589583738304,
        "lon": 96.63618804627905,
        "alt_km": 421.5608198195332,
        "timestamp": "2025-12-10T23:33:11.640555+00:00",
        "meta_object_name": "DRAGON CRS-33",
        "meta_object_id": "2025-186A",
        "meta_epoch": "2025-12-10T13:00:09.919872",
        "meta_mean_motion": 15.49478601,
        "meta_eccentricity": 0.00033601,
        "meta_inclination": 51.6308,
        "meta_ra_of_asc_node": 153.362,
        "meta_arg_of_pericenter": 230.7092,
        "meta_mean_anomaly": 129.3599,
        "meta_ephemeris_type": 0,
        "meta_classification_type": "U",
        "meta_norad_cat_id": 65304,
        "meta_element_set_no": 999,
        "meta_rev_at_epoch": 11,
        "meta_bstar": 0.0002844348,
        "meta_mean_motion_dot": 0.00015517,
        "meta_mean_motion_ddot": 0,
        "tle_line1": "1 65304U 25186A   25344.54178148  .00015517  00000+0  28443-3 0  9998",
        "tle_line2": "2 65304  51.6308 153.3620 0003360 230.7092 129.3599 15.49478601   113"
      },
      "geometry": {
        "type": "Point",
        "coordinates": [
          96.63618804627905,
          -45.79589583738304
        ]
      }
    },
    {
      "type": "Feature",
      "properties": {
        "norad_id": 65586,
        "name": "PROGRESS-MS 32",
        "group": "stations",
        "lat": -45.79589557340256,
        "lon": 96.63618878754339,
        "alt_km": 421.5608198307391,
        "timestamp": "2025-12-10T23:33:11.640564+00:00",
        "meta_object_name": "PROGRESS-MS 32",
        "meta_object_id": "2025-204A",
        "meta_epoch": "2025-12-10T13:00:09.919872",
        "meta_mean_motion": 15.49478601,
        "meta_eccentricity": 0.00033601,
        "meta_inclination": 51.6308,
        "meta_ra_of_asc_node": 153.362,
        "meta_arg_of_pericenter": 230.7092,
        "meta_mean_anomaly": 129.3599,
        "meta_ephemeris_type": 0,
        "meta_classification_type": "U",
        "meta_norad_cat_id": 65586,
        "meta_element_set_no": 999,
        "meta_rev_at_epoch": 27,
        "meta_bstar": 0.0002844348,
        "meta_mean_motion_dot": 0.00015517,
        "meta_mean_motion_ddot": 0,
        "tle_line1": "1 65586U 25204A   25344.54178148  .00015517  00000+0  28443-3 0  9991",
        "tle_line2": "2 65586  51.6308 153.3620 0003360 230.7092 129.3599 15.49478601   272"
      },
      "geometry": {
        "type": "Point",
        "coordinates": [
          96.63618878754339,
          -45.79589557340256
        ]
      }
    },
    {
      "type": "Feature",
      "properties": {
        "norad_id": 65616,
        "name": "CYGNUS NG-23",
        "group": "stations",
        "lat": -45.79589530942279,
        "lon": 96.63618952880566,
        "alt_km": 421.5608198419468,
        "timestamp": "2025-12-10T23:33:11.640573+00:00",
        "meta_object_name": "CYGNUS NG-23",
        "meta_object_id": "2025-208A",
        "meta_epoch": "2025-12-10T13:00:09.919872",
        "meta_mean_motion": 15.49478601,
        "meta_eccentricity": 0.00033601,
        "meta_inclination": 51.6308,
        "meta_ra_of_asc_node": 153.362,
        "meta_arg_of_pericenter": 230.7092,
        "meta_mean_anomaly": 129.3599,
        "meta_ephemeris_type": 0,
        "meta_classification_type": "U",
        "meta_norad_cat_id": 65616,
        "meta_element_set_no": 999,
        "meta_rev_at_epoch": 22,
        "meta_bstar": 0.0002844348,
        "meta_mean_motion_dot": 0.00015517,
        "meta_mean_motion_ddot": 0,
        "tle_line1": "1 65616U 25208A   25344.54178148  .00015517  00000+0  28443-3 0  9999",
        "tle_line2": "2 65616  51.6308 153.3620 0003360 230.7092 129.3599 15.49478601   221"
      },
      "geometry": {
        "type": "Point",
        "coordinates": [
          96.63618952880566,
          -45.79589530942279
        ]
      }
    },
    {
      "type": "Feature",
      "properties": {
        "norad_id": 65729,
        "name": "DRAGONFLY",
        "group": "stations",
        "lat": 35.32418116687533,
        "lon": -69.403581058768,
        "alt_km": 354.00347826643974,
        "timestamp": "2025-12-10T23:33:11.640582+00:00",
        "meta_object_name": "DRAGONFLY",
        "meta_object_id": "1998-067XH",
        "meta_epoch": "2025-12-10T10:46:42.048192",
        "meta_mean_motion": 15.70885293,
        "meta_eccentricity": 0.00065676,
        "meta_inclination": 51.625,
        "meta_ra_of_asc_node": 147.4857,
        "meta_arg_of_pericenter": 262.4747,
        "meta_mean_anomaly": 97.5505,
        "meta_ephemeris_type": 0,
        "meta_classification_type": "U",
        "meta_norad_cat_id": 65729,
        "meta_element_set_no": 999,
        "meta_rev_at_epoch": 1280,
        "meta_bstar": 0.0016626821,
        "meta_mean_motion_dot": 0.00217091,
        "meta_mean_motion_ddot": 0,
        "tle_line1": "1 65729U 98067XH  25344.44909778  .00217091  00000+0  16627-2 0  9998",
        "tle_line2": "2 65729  51.6250 147.4857 0006567 262.4747  97.5505 15.70885293 12802"
      },
      "geometry": {
        "type": "Point",
        "coordinates": [
          -69.403581058768,
          35.32418116687533
        ]
      }
    }
  ]
}